KAITUO 1B               
1 40912U 15049P   17328.49055590  .00002374  00000-0  11902-3 0  9995
2 40912  97.4505 333.7995 0015971  11.0318 141.3347 15.18215780120604
TIANWANG 1C (TW-1C)     
1 40926U 15051B   17328.40858057  .00012164  00000-0  25261-3 0  9994
2 40926  97.2100   6.8554 0009869 315.5968 156.0944 15.45774661121648
TIANWANG 1B (TW-1B)     
1 40927U 15051C   17328.40368284  .00011945  00000-0  25806-3 0  9994
2 40927  97.2191   6.7922 0009503 326.3111 159.0624 15.44619086121570
TIANWANG 1A (TW-1A)     
1 40928U 15051D   17328.41053270  .00004223  00000-0  11691-3 0  9990
2 40928  97.2098   1.3233 0011783 350.5284 135.2710 15.37461915121307
LAPAN-A2 (IO-86)        
1 40931U 15052B   17327.99146390  .00000715  00000-0  10578-4 0  9999
2 40931   5.9971 173.2841 0013459 343.3657  16.6110 14.76556062116622
LQSAT                   
1 40958U 15057A   17328.42796011  .00000107  00000-0  24414-4 0  9992
2 40958  97.9642  40.8265 0016627 273.3516  86.5788 14.73002636114706
CHUBUSAT-2              
1 41338U 16012B   17328.01426374  .00000466  00000-0  29761-4 0  9992
2 41338  31.0021 177.0995 0013984 202.3508 157.6519 14.99873777 97003
CHUBUSAT-3              
1 41339U 16012C   17327.98759664  .00000492  00000-0  31656-4 0  9994
2 41339  31.0088 176.1649 0013857 208.8314 151.1557 15.00069403 96981
OUFTI-1                 
1 41458U 16025C   17328.36874341  .00002212  00000-0  11927-3 0  9993
2 41458  98.1637  15.0463 0173358 113.8608 248.0910 15.03957246 86641
E-ST@R-II               
1 41459U 16025D   17328.40918291  .00003508  00000-0  18697-3 0  9992
2 41459  98.1668  14.9980 0174182 114.2917 247.6617 15.03757595 86646
AAUSAT 4                
1 41460U 16025E   17328.43215974  .00003160  00000-0  16808-3 0  9991
2 41460  98.1577  15.2500 0166178 111.5748 250.3290 15.04914583 86682
NUSAT 1 (LO-87)         
1 41557U 16033B   17328.26425419  .00002541  00000-0  96312-4 0  9996
2 41557  97.4525  47.7472 0014697 156.4044 203.7872 15.27739391 82868
BEESAT-4                
1 41619U 16040W   17328.11588771  .00002634  00000-0  12012-3 0  9995
2 41619  97.4434  28.8537 0010725 222.9592 137.0807 15.21475860 66909
PRATHAM                 
1 41783U 16059A   17328.14874061  .00000108  00000-0  30332-4 0  9990
2 41783  98.1476  27.7002 0034008  21.3905 338.8709 14.62881548 61982
ALSAT 1N                
1 41789U 16059G   17328.41454853  .00000139  00000-0  35500-4 0  9995
2 41789  98.1481  28.7766 0028831  14.6484 345.5557 14.64103222 62059
NAYIF-1 (EO-88)         
1 42017U 17008BX  17328.45176686  .00002569  00000-0  10981-3 0  9998
2 42017  97.4761  29.4951 0007186  32.6002 327.5677 15.23750181 42887
LILACSAT-1              
1 42725U 98067ME  17328.44006958  .00024357  00000-0  29072-3 0  9991
2 42725  51.6389 315.3829 0004646 168.8970 191.2127 15.60891855 28454
MAX VALIER SAT          
1 42778U 17036P   17328.59009854  .00001692  00000-0  79619-4 0  9990
2 42778  97.4330  26.4154 0014415  65.5137 294.7429 15.20845524 23402
